{
    "links": {
        "self": "http://www.neowsapp.com/rest/v1/neo/3838939?api_key=iIulBulltgU6a56xZRHN4H3l9WmuAYTsLGpBGhQ2"
    },
    "id": "3838939",
    "neo_reference_id": "3838939",
    "name": "(2019 DG2)",
    "designation": "2019 DG2",
    "nasa_jpl_url": "http://ssd.jpl.nasa.gov/sbdb.cgi?sstr=3838939",
    "absolute_magnitude_h": 28.475,
    "estimated_diameter": {
        "kilometers": {
            "estimated_diameter_min": 0.0053648178,
            "estimated_diameter_max": 0.0119960973
        },
        "meters": {
            "estimated_diameter_min": 5.3648177947,
            "estimated_diameter_max": 11.9960972758
        },
        "miles": {
            "estimated_diameter_min": 0.0033335422,
            "estimated_diameter_max": 0.007454027
        },
        "feet": {
            "estimated_diameter_min": 17.6011088135,
            "estimated_diameter_max": 39.3572757862
        }
    },
    "is_potentially_hazardous_asteroid": false,
    "close_approach_data": [
        {
            "close_approach_date": "2019-02-26",
            "close_approach_date_full": "2019-Feb-26 07:39",
            "epoch_date_close_approach": 1551166740000,
            "relative_velocity": {
                "kilometers_per_second": "21.0392137105",
                "kilometers_per_hour": "75741.1693577539",
                "miles_per_hour": "47062.6171489888"
            },
            "miss_distance": {
                "astronomical": "0.0015777393",
                "lunar": "0.6137405877",
                "kilometers": "236026.438695291",
                "miles": "146660.0282893758"
            },
            "orbiting_body": "Earth"
        },
        {
            "close_approach_date": "2019-02-26",
            "close_approach_date_full": "2019-Feb-26 08:02",
            "epoch_date_close_approach": 1551168120000,
            "relative_velocity": {
                "kilometers_per_second": "22.0221939615",
                "kilometers_per_hour": "79279.8982612344",
                "miles_per_hour": "49261.4456723765"
            },
            "miss_distance": {
                "astronomical": "0.0041569649",
                "lunar": "1.6170593461",
                "kilometers": "621873.094704763",
                "miles": "386414.0227932094"
            },
            "orbiting_body": "Moon"
        }
    ],
    "orbital_data": {
        "orbit_id": "1",
        "orbit_determination_date": "2019-03-13 06:55:45",
        "first_observation_date": "2019-02-28",
        "last_observation_date": "2019-03-01",
        "data_arc_in_days": 1,
        "observations_used": 14,
        "orbit_uncertainty": "8",
        "minimum_orbit_intersection": ".000132219",
        "jupiter_tisserand_invariant": "2.951",
        "epoch_osculation": "2458543.5",
        "eccentricity": ".7549241898848614",
        "semi_major_axis": "2.559789489969588",
        "inclination": "3.482474059993345",
        "ascending_node_longitude": "337.1551107178682",
        "orbital_period": "1495.907722760466",
        "perihelion_distance": ".6273424829785142",
        "perihelion_argument": "98.42633230275227",
        "aphelion_distance": "4.492236496960663",
        "perihelion_time": "2458497.383036298177",
        "mean_anomaly": "11.09834963751619",
        "mean_motion": ".2406565555632509",
        "equinox": "J2000",
        "orbit_class": {
            "orbit_class_type": "APO",
            "orbit_class_description": "Near-Earth asteroid orbits which cross the Earth’s orbit similar to that of 1862 Apollo",
            "orbit_class_range": "a (semi-major axis) > 1.0 AU; q (perihelion) < 1.017 AU"
        }
    },
    "is_sentry_object": false
}